[
    {
        "Altitude(m)": 611965.1856396886,
        "Argument of Periapsis(deg)": 0.0,
        "Eccentricity": 0.0,
        "Inclination(deg)": 60.0,
        "Latitude(deg)": 59.140162424328366,
        "Longitude(deg)": -21.03035221213457,
        "Mean Anomaly(deg)": 81.8182,
        "RAAN(deg)": 5.0,
        "Satellite Name": "Test1 27",
        "Satellite Number": 27,
        "Semi-Major Axis(m)": 6980739.136638005,
        "Time(s)": 0
    },
    {
        "Altitude(m)": 611995.8118075144,
        "Argument of Periapsis(deg)": 0.00010418945913296404,
        "Eccentricity": 0.0,
        "Inclination(deg)": 60.0,
        "Latitude(deg)": 59.28326442683715,
        "Longitude(deg)": -19.89699094012927,
        "Mean Anomaly(deg)": 82.43830614546184,
        "RAAN(deg)": 4.999579950860257,
        "Satellite Name": "Test1 27",
        "Satellite Number": 27,
        "Semi-Major Axis(m)": 6980739.136638005,
        "Time(s)": 10
    }
]